STARLINK-30423          
1 57843C 23141D   26107.59701389 -.00036473  00000+0 -12292-2 0  1079
2 57843  53.1571 103.4337 0001174  83.7138 198.5717 15.30211976    19
STARLINK-30292          
1 57844C 23141E   26107.54423611 -.00010124  00000+0 -34121-3 0  1075
2 57844  53.1567 103.2653 0001317  81.1020 230.0093 15.30196753    19
STARLINK-30416          
1 57847C 23141H   26107.63034722 -.00036496  00000+0 -12301-2 0  1074
2 57847  53.1577 103.3005 0001223  82.8013  98.6736 15.30207919    10
STARLINK-30426          
1 57848C 23141J   26107.58659722 -.00027694  00000+0 -93337-3 0  1071
2 57848  53.1569 103.4821 0001269  83.7259 123.7265 15.30206137    19
STARLINK-30430          
1 57849C 23141K   26107.57479167 -.00024853  00000+0 -83753-3 0  1079
2 57849  53.1577 103.5663 0001221  79.9867 172.6903 15.30207652    19
STARLINK-30425          
1 57850C 23141L   26107.59631944 -.00039529  00000+0 -13318-2 0  1071
2 57850  53.1568 103.4783 0001241  84.0853 159.4997 15.30223867    19
STARLINK-30405          
1 57851C 23141M   26107.53451389  .00002401  00000+0  80923-4 0  1074
2 57851  53.1574 103.7670 0001209  69.0264 286.8062 15.30190451    18
STARLINK-30431          
1 57852C 23141N   26107.60326389 -.00033631  00000+0 -11332-2 0  1071
2 57852  53.1575 103.0429 0001165  72.9877 174.3570 15.30215450    11
STARLINK-30404          
1 57853C 23141P   26107.62201389 -.00035864  00000+0 -12089-2 0  1076
2 57853  53.1568 102.9088 0001329  82.3328 291.6551 15.30206590    18
STARLINK-30412          
1 57854C 23141Q   26107.60743056 -.00035791  00000+0 -12063-2 0  1078
2 57854  53.1581 103.0912 0001371  77.6706 157.7683 15.30209520    10
STARLINK-30392          
1 57855C 23141R   26107.62618056 -.00034820  00000+0 -11739-2 0  1073
2 57855  53.1578 102.9686 0001199  82.8629 273.3785 15.30200269    12
STARLINK-30291          
1 57856C 23141S   26107.54770833 -.00003713  00000+0 -12514-3 0  1077
2 57856  53.1586 103.5860 0001343  76.4527  79.3033 15.30196043    14
STARLINK-30424          
1 57857C 23141T   26107.56437500 -.00037203  00000+0 -12540-2 0  1070
2 57857  53.1589  77.5502 0001341  87.2877 155.1459 15.30207024    14
STARLINK-30290          
1 57858C 23141U   26107.55743056 -.00019172  00000+0 -64609-3 0  1075
2 57858  53.1583 103.3914 0001360  74.1074 210.8449 15.30203785    17
STARLINK-30414          
1 57859C 23141V   26107.62479167 -.00039253  00000+0 -13230-2 0  1078
2 57859  53.1581 103.0430 0001284  80.7349 232.9472 15.30211322    16
STARLINK-30272          
1 57860C 23141W   26107.55951389 -.00012509  00000+0 -42165-3 0  1078
2 57860  53.1582 103.5637 0001461  78.7989 124.5862 15.30193681    13
STARLINK-30432          
1 57864C 23144A   26107.55465278 -.00031250  00000+0 -11320-2 0  1074
2 57864  43.0033  65.5647 0001822 272.7193  66.5920 15.27590184    13
STARLINK-30427          
1 57865C 23144B   26107.57201389 -.00027815  00000+0 -10075-2 0  1076
2 57865  43.0029  65.5094 0001405 270.1765 143.4972 15.27591109    19
STARLINK-30393          
1 57866C 23144C   26107.61993056 -.00022757  00000+0 -82440-3 0  1077
2 57866  43.0039  65.0894 0001609 271.0927 110.0779 15.27583927    14
STARLINK-30439          
1 57867C 23144D   26107.60465278 -.00031513  00000+0 -11415-2 0  1070
2 57867  43.0024  65.3774 0001321 265.0173 307.1320 15.27591932    12
STARLINK-30442          
1 57868C 23144E   26107.62826389 -.00022791  00000+0 -82560-3 0  1075
2 57868  43.0018  65.2520 0001010 269.5352  51.4409 15.27585251    11
STARLINK-30441          
1 57869C 23144F   26107.62687500 -.00020446  00000+0 -74064-3 0  1071
2 57869  43.0041  65.0593 0001262 268.7618 129.4522 15.27585060    11
STARLINK-30460          
1 57870C 23144G   26107.57270833 -.00031168  00000+0 -11280-2 0  1077
2 57870  43.0015  65.6413 0000742 262.4523  98.4913 15.27620584    19
STARLINK-30444          
1 57871C 23144H   26107.58798611 -.00026904  00000+0 -97404-3 0  1073
2 57871  43.0020  65.6588 0000811 270.9669 131.4809 15.27607209    12
STARLINK-30446          
1 57872C 23144J   26107.56645833 -.00082956  00000+0 -30048-2 0  1078
2 57872  43.0017  51.5130 0001388 263.6446 285.4556 15.27617904    10
STARLINK-30445          
1 57873C 23144K   26107.59354167 -.00027488  00000+0 -99567-3 0  1070
2 57873  43.0014  65.5783 0000946 261.4916 192.8997 15.27590378    19
STARLINK-30447          
1 57874C 23144L   26107.61298611  .00005305  00000+0  19217-3 0  1071
2 57874  43.0056  39.6353 0001414 266.3008 172.1405 15.27573016    13
STARLINK-30434          
1 57875C 23144M   26107.54840278 -.00028195  00000+0 -10211-2 0  1074
2 57875  43.0033  65.9816 0000999 261.7375 240.4457 15.27595912    13
STARLINK-30429          
1 57876C 23144N   26107.60812500 -.00026860  00000+0 -97283-3 0  1071
2 57876  43.0039  65.6982 0001243 264.5626 185.2099 15.27592676    16
STARLINK-30284          
1 57877C 23144P   26107.60951389  .00008034  00000+0  29109-3 0  1074
2 57877  43.0046  28.7588 0001530 259.9203   3.6980 15.27564379    16
STARLINK-30433          
1 57878C 23144Q   26107.57687500 -.00033595  00000+0 -12168-2 0  1070
2 57878  43.0049  65.2345 0001411 267.5027 279.0631 15.27594590    14
STARLINK-30358          
1 57879C 23144R   26107.55256944 -.00057677  00000+0 -20889-2 0  1079
2 57879  43.0048  65.4190 0001683 265.1745 126.3386 15.27609832    13
STARLINK-30436          
1 57880C 23144S   26107.58104167 -.00073185  00000+0 -26505-2 0  1076
2 57880  43.0041  65.3383 0001510 263.2348 249.6760 15.27617282    11
STARLINK-30339          
1 57882C 23144U   26107.58451389 -.00035380  00000+0 -13143-2 0  1078
2 57882  43.0045  65.8802 0001233 265.4633  32.8928 15.26765469    19
STARLINK-30282          
1 57883C 23144V   26107.55465278 -.00080459  00000+0 -29137-2 0  1075
2 57883  43.0049  65.3256 0001665 265.8204 172.5390 15.27623644    13
STARLINK-30340          
1 57884C 23144W   26107.54215278 -.00029244  00000+0 -10593-2 0  1079
2 57884  43.0044  65.4846 0001510 273.6118  53.4870 15.27590484    10
STARLINK-30279          
1 57885C 23144X   26107.58381944 -.00033941  00000+0 -12295-2 0  1078
2 57885  43.0047  65.2090 0001492 271.6579 306.0661 15.27589979    13
STARLINK-30465          
1 57891C 23146A   26107.57826389 -.00012077  00000+0 -44870-3 0  1075
2 57891  43.0026  94.4124 0001879 263.8987 172.3977 15.26747243    17
STARLINK-30470          
1 57892C 23146B   26107.62201389 -.00031216  00000+0 -11305-2 0  1071
2 57892  43.0033  94.0524 0001601 273.5376  89.7500 15.27596876    17
STARLINK-30473          
1 57893C 23146C   26107.56437500 -.00013884  00000+0 -50307-3 0  1078
2 57893  43.0018  94.7475 0000636 261.7534 320.3795 15.27573142    16
STARLINK-30443          
1 57894C 23146D   26107.54631944 -.00007435  00000+0 -26898-3 0  1078
2 57894  43.0012  94.6788 0001283 271.6931 310.0072 15.27621093    10
STARLINK-30467          
1 57895C 23146E   26107.61854167 -.00033322  00000+0 -12068-2 0  1078
2 57895  43.0025  94.1248 0001840 282.6696  40.2836 15.27598416    12
STARLINK-30469          
1 57896C 23146F   26107.61298611 -.00031011  00000+0 -11230-2 0  1078
2 57896  43.0011  94.3506 0001162 266.7742 300.5872 15.27598957    11
STARLINK-30474          
1 57897C 23146G   26107.60465278 -.00047478  00000+0 -17636-2 0  1073
2 57897  43.0009  94.3176 0001581 267.2740 290.1206 15.26772371    19
STARLINK-30479          
1 57898C 23146H   26107.56506944 -.00041563  00000+0 -15052-2 0  1074
2 57898  43.0008  94.7046 0001297 269.4216 358.8817 15.27603591    13
STARLINK-30481          
1 57899C 23146J   26107.55743056 -.00041226  00000+0 -15313-2 0  1077
2 57899  43.0003  94.6494 0001428 270.3495 358.7996 15.26770761    11
STARLINK-30457          
1 57900C 23146K   26107.56020833 -.00004883  00000+0 -17690-3 0  1071
2 57900  43.0009  95.0163 0001204 274.3661 206.8940 15.27574985    12
STARLINK-30472          
1 57901C 23146L   26107.58590278 -.00018721  00000+0 -67815-3 0  1079
2 57901  43.0020  90.9596 0001009 277.7703 194.4985 15.27584533    18
STARLINK-30462          
1 57902C 23146M   26107.57618056 -.00022127  00000+0 -82205-3 0  1079
2 57902  43.0018  94.7789 0001185 273.3278 356.6432 15.26756038    15
STARLINK-30449          
1 57903C 23146N   26107.59909722 -.00026331  00000+0 -97818-3 0  1072
2 57903  43.0028  94.2657 0001922 273.7962 284.9508 15.26757935    13
STARLINK-30466          
1 57904C 23146P   26107.55881944 -.00032749  00000+0 -12165-2 0  1075
2 57904  43.0009  94.7702 0001328 271.6532 308.8681 15.26764361    18
STARLINK-30428          
1 57906C 23146R   26107.58798611 -.00026090  00000+0 -96928-3 0  1070
2 57906  43.0019  94.7439 0001253 273.7137  47.2859 15.26756907    17
STARLINK-30482          
1 57907C 23146S   26107.60187500 -.00049227  00000+0 -17826-2 0  1079
2 57907  43.0035  94.8826 0001258 269.7594  38.4325 15.27611193    12
STARLINK-30464          
1 57908C 23146T   26107.63173611 -.00064079  00000+0 -23207-2 0  1073
2 57908  43.0001  98.0716 0001216 267.1540 222.3470 15.27614130    16
STARLINK-30463          
1 57909C 23146U   26107.61576389 -.00029815  00000+0 -11071-2 0  1076
2 57909  43.0034  94.8321 0001563 285.7724  86.9555 15.26773798    17
STARLINK-30453          
1 57910C 23146V   26107.59354167 -.00038160  00000+0 -13822-2 0  1072
2 57910  43.0041  91.4143 0001382 266.7541  42.3966 15.27597122    15
STARLINK-30478          
1 57911C 23146W   26107.55048611 -.00026017  00000+0 -96627-3 0  1076
2 57911  43.0043  94.4186 0001602 269.4306  72.7982 15.26766545    13
STARLINK-30477          
1 57912C 23146X   26107.58312500 -.00056291  00000+0 -20385-2 0  1075
2 57912  43.0024  90.9285 0001514 266.9699 211.2159 15.27612153    15
STARLINK-30450          
1 57913C 23147A   26107.61437500 -.00039584  00000+0 -14335-2 0  1073
2 57913  43.0016 105.0955 0001383 271.5523 113.5652 15.27602307    13
